STARLINK-3355           
1 50808U 22001F   26068.47549460 -.00000350  00000+0 -39078-5 0  9998
2 50808  53.2175 160.0827 0001396 109.4344 250.6799 15.08830150230514
DISKSAT D               
1 67221U 25305C   26068.55257179  .00011599  00000+0  76841-3 0  9999
2 67221  45.0023 251.6339 0003712 319.2749  40.7848 15.07416577 12277
